{
    "links": {
        "self": "http://www.neowsapp.com/rest/v1/neo/3712528?api_key=iIulBulltgU6a56xZRHN4H3l9WmuAYTsLGpBGhQ2"
    },
    "id": "3712528",
    "neo_reference_id": "3712528",
    "name": "(2015 DT198)",
    "designation": "2015 DT198",
    "nasa_jpl_url": "http://ssd.jpl.nasa.gov/sbdb.cgi?sstr=3712528",
    "absolute_magnitude_h": 23.8,
    "estimated_diameter": {
        "kilometers": {
            "estimated_diameter_min": 0.046190746,
            "estimated_diameter_max": 0.1032856481
        },
        "meters": {
            "estimated_diameter_min": 46.1907460282,
            "estimated_diameter_max": 103.2856480504
        },
        "miles": {
            "estimated_diameter_min": 0.0287015901,
            "estimated_diameter_max": 0.0641787064
        },
        "feet": {
            "estimated_diameter_min": 151.544447199,
            "estimated_diameter_max": 338.8636855496
        }
    },
    "is_potentially_hazardous_asteroid": false,
    "close_approach_data": [
        {
            "close_approach_date": "2014-10-21",
            "close_approach_date_full": "2014-Oct-21 21:36",
            "epoch_date_close_approach": 1413927360000,
            "relative_velocity": {
                "kilometers_per_second": "21.5323345842",
                "kilometers_per_hour": "77516.4045032834",
                "miles_per_hour": "48165.6792314985"
            },
            "miss_distance": {
                "astronomical": "0.0734421923",
                "lunar": "28.5690128047",
                "kilometers": "10986795.536210401",
                "miles": "6826878.1796534938"
            },
            "orbiting_body": "Mars"
        },
        {
            "close_approach_date": "2015-02-17",
            "close_approach_date_full": "2015-Feb-17 09:12",
            "epoch_date_close_approach": 1424164320000,
            "relative_velocity": {
                "kilometers_per_second": "21.8149907414",
                "kilometers_per_hour": "78533.9666690972",
                "miles_per_hour": "48797.9527894732"
            },
            "miss_distance": {
                "astronomical": "0.0769810691",
                "lunar": "29.9456358799",
                "kilometers": "11516203.967682817",
                "miles": "7155837.3249321946"
            },
            "orbiting_body": "Earth"
        }
    ],
    "orbital_data": {
        "orbit_id": "4",
        "orbit_determination_date": "2017-04-06 08:35:23",
        "first_observation_date": "2015-02-23",
        "last_observation_date": "2015-02-26",
        "data_arc_in_days": 3,
        "observations_used": 14,
        "orbit_uncertainty": "8",
        "minimum_orbit_intersection": ".0349687",
        "jupiter_tisserand_invariant": "2.956",
        "epoch_osculation": "2457077.5",
        "eccentricity": ".7873763442227624",
        "semi_major_axis": "2.46908610329555",
        "inclination": "2.762568468541352",
        "ascending_node_longitude": "277.3804053294551",
        "orbital_period": "1417.107444713854",
        "perihelion_distance": ".524986113711474",
        "perihelion_argument": "141.162166608637",
        "aphelion_distance": "4.413186092879625",
        "perihelion_time": "2457027.136576716364",
        "mean_anomaly": "12.79425385121027",
        "mean_motion": ".2540386061359605",
        "equinox": "J2000",
        "orbit_class": {
            "orbit_class_type": "APO",
            "orbit_class_description": "Near-Earth asteroid orbits which cross the Earth’s orbit similar to that of 1862 Apollo",
            "orbit_class_range": "a (semi-major axis) > 1.0 AU; q (perihelion) < 1.017 AU"
        }
    },
    "is_sentry_object": false
}